start=new Date('2021-09-30T00:00:00.000Z').valueOf();
sats=[{"TLE_LINE2":"2 46566  53.0546 239.7826 0001116  56.6013 303.5082 15.06399817 55256","CENTER_NAME":"EARTH","SITE":"AFETR","EPOCH":"2021-09-29T07:24:01.991232","APOAPSIS":"547.987","RA_OF_ASC_NODE":"239.7826","DECAY_DATE":null,"PERIAPSIS":"546.441","SEMIMAJOR_AXIS":"6925.349","MEAN_MOTION_DOT":"0.00000810","REF_FRAME":"TEME","TLE_LINE1":"1 46566U 20070AL  21272.30835638  .00000810  00000-0  73253-4 0  9999","FILE":"3134986","MEAN_ELEMENT_THEORY":"SGP4","OBJECT_NAME":"STARLINK-1740","MEAN_MOTION_DDOT":"0.0000000000000","ELEMENT_SET_NO":"999","BSTAR":"0.00007325300000","EPHEMERIS_TYPE":"0","CLASSIFICATION_TYPE":"U","ARG_OF_PERICENTER":"56.6013","COUNTRY_CODE":"US","RCS_SIZE":"LARGE","LAUNCH_DATE":"2020-10-06","PERIOD":"95.592","OBJECT_ID":"2020-070AL","NORAD_CAT_ID":"46566","MEAN_ANOMALY":"303.5082","ECCENTRICITY":"0.00011160","INCLINATION":"53.0546","REV_AT_EPOCH":"5525","TIME_SYSTEM":"UTC","GP_ID":"185792281","OBJECT_TYPE":"PAYLOAD","MEAN_MOTION":"15.06399817"},{"MEAN_MOTION_DOT":"0.00002676","OBJECT_NAME":"STARLINK-1741","FILE":"3134986","MEAN_ELEMENT_THEORY":"SGP4","TLE_LINE1":"1 46567U 20070AM  21272.33784676  .00002676  00000-0  19853-3 0  9995","REF_FRAME":"TEME","SITE":"AFETR","EPOCH":"2021-09-29T08:06:29.960064","APOAPSIS":"548.258","CENTER_NAME":"EARTH","TLE_LINE2":"2 46567  53.0542 239.6518 0001487  73.4965 286.6187 15.06395082 55262","DECAY_DATE":null,"PERIAPSIS":"546.199","SEMIMAJOR_AXIS":"6925.364","RA_OF_ASC_NODE":"239.6518","INCLINATION":"53.0542","ECCENTRICITY":"0.00014870","OBJECT_TYPE":"PAYLOAD","MEAN_MOTION":"15.06395082","GP_ID":"185793031","REV_AT_EPOCH":"5526","TIME_SYSTEM":"UTC","ARG_OF_PERICENTER":"73.4965","CLASSIFICATION_TYPE":"U","EPHEMERIS_TYPE":"0","ELEMENT_SET_NO":"999","MEAN_MOTION_DDOT":"0.0000000000000","BSTAR":"0.00019853000000","OBJECT_ID":"2020-070AM","MEAN_ANOMALY":"286.6187","NORAD_CAT_ID":"46567","LAUNCH_DATE":"2020-10-06","PERIOD":"95.592","RCS_SIZE":"LARGE","COUNTRY_CODE":"US"},{"ECCENTRICITY":"0.00078330","INCLINATION":"53.0529","GP_ID":"185803462","REV_AT_EPOCH":"5516","TIME_SYSTEM":"UTC","MEAN_MOTION":"15.31289177","OBJECT_TYPE":"PAYLOAD","EPHEMERIS_TYPE":"0","BSTAR":"0.00342700000000","MEAN_MOTION_DDOT":"0.0000000000000","ELEMENT_SET_NO":"999","ARG_OF_PERICENTER":"275.5826","CLASSIFICATION_TYPE":"U","RCS_SIZE":"LARGE","COUNTRY_CODE":"US","MEAN_ANOMALY":"84.4280","NORAD_CAT_ID":"46568","OBJECT_ID":"2020-070AN","PERIOD":"94.038","LAUNCH_DATE":"2020-10-06","MEAN_MOTION_DOT":"0.00106218","REF_FRAME":"TEME","OBJECT_NAME":"STARLINK-1743","FILE":"3135415","MEAN_ELEMENT_THEORY":"SGP4","TLE_LINE1":"1 46568U 20070AN  21272.63962599  .00106218  00000-0  34270-2 0  9997","TLE_LINE2":"2 46568  53.0529 249.6735 0007833 275.5826  84.4280 15.31289177 55164","APOAPSIS":"477.333","EPOCH":"2021-09-29T15:21:03.685536","SITE":"AFETR","CENTER_NAME":"EARTH","DECAY_DATE":null,"PERIAPSIS":"466.601","SEMIMAJOR_AXIS":"6850.102","RA_OF_ASC_NODE":"249.6735"},{"INCLINATION":"53.0536","ECCENTRICITY":"0.00014380","MEAN_MOTION":"15.06397360","OBJECT_TYPE":"PAYLOAD","GP_ID":"185791530","TIME_SYSTEM":"UTC","REV_AT_EPOCH":"5525","ARG_OF_PERICENTER":"64.1143","CLASSIFICATION_TYPE":"U","EPHEMERIS_TYPE":"0","BSTAR":"0.00007193400000","ELEMENT_SET_NO":"999","MEAN_MOTION_DDOT":"0.0000000000000","NORAD_CAT_ID":"46569","MEAN_ANOMALY":"295.9994","OBJECT_ID":"2020-070AP","PERIOD":"95.592","LAUNCH_DATE":"2020-10-06","RCS_SIZE":"LARGE","COUNTRY_CODE":"US","MEAN_MOTION_DOT":"0.00000790","OBJECT_NAME":"STARLINK-1747","FILE":"3134986","MEAN_ELEMENT_THEORY":"SGP4","TLE_LINE1":"1 46569U 20070AP  21272.28624629  .00000790  00000-0  71934-4 0  9996","REF_FRAME":"TEME","APOAPSIS":"548.218","EPOCH":"2021-09-29T06:52:11.679456","SITE":"AFETR","CENTER_NAME":"EARTH","TLE_LINE2":"2 46569  53.0536 239.8709 0001438  64.1143 295.9994 15.06397360 55251","SEMIMAJOR_AXIS":"6925.357","DECAY_DATE":null,"PERIAPSIS":"546.226","RA_OF_ASC_NODE":"239.8709"},{"OBJECT_ID":"2020-070AQ","MEAN_ANOMALY":"292.5179","NORAD_CAT_ID":"46570","LAUNCH_DATE":"2020-10-06","PERIOD":"95.592","RCS_SIZE":"LARGE","COUNTRY_CODE":"US","ARG_OF_PERICENTER":"67.5973","CLASSIFICATION_TYPE":"U","EPHEMERIS_TYPE":"0","ELEMENT_SET_NO":"999","MEAN_MOTION_DDOT":"0.0000000000000","BSTAR":"0.00034122000000","OBJECT_TYPE":"PAYLOAD","MEAN_MOTION":"15.06397043","GP_ID":"185792781","TIME_SYSTEM":"UTC","REV_AT_EPOCH":"5525","INCLINATION":"53.0527","ECCENTRICITY":"0.00015410","PERIAPSIS":"546.155","DECAY_DATE":null,"SEMIMAJOR_AXIS":"6925.358","RA_OF_ASC_NODE":"239.6805","SITE":"AFETR","EPOCH":"2021-09-29T07:50:35.789568","APOAPSIS":"548.290","CENTER_NAME":"EARTH","TLE_LINE2":"2 46570  53.0527 239.6805 0001541  67.5973 292.5179 15.06397043 55257","FILE":"3134986","OBJECT_NAME":"STARLINK-1748","MEAN_ELEMENT_THEORY":"SGP4","TLE_LINE1":"1 46570U 20070AQ  21272.32680312  .00004804  00000-0  34122-3 0  9991","REF_FRAME":"TEME","MEAN_MOTION_DOT":"0.00004804"},{"OBJECT_TYPE":"PAYLOAD","MEAN_MOTION":"15.06405041","GP_ID":"185792532","TIME_SYSTEM":"UTC","REV_AT_EPOCH":"5526","INCLINATION":"53.0534","ECCENTRICITY":"0.00012320","OBJECT_ID":"2020-070AR","NORAD_CAT_ID":"46571","MEAN_ANOMALY":"297.5687","LAUNCH_DATE":"2020-10-06","PERIOD":"95.592","RCS_SIZE":"LARGE","COUNTRY_CODE":"US","ARG_OF_PERICENTER":"62.5428","CLASSIFICATION_TYPE":"U","EPHEMERIS_TYPE":"0","MEAN_MOTION_DDOT":"0.0000000000000","ELEMENT_SET_NO":"999","BSTAR":"0.00019526000000","MEAN_ELEMENT_THEORY":"SGP4","FILE":"3134986","OBJECT_NAME":"STARLINK-1753","TLE_LINE1":"1 46571U 20070AR  21272.35626660  .00002629  00000-0  19526-3 0  9995","REF_FRAME":"TEME","MEAN_MOTION_DOT":"0.00002629","DECAY_DATE":null,"SEMIMAJOR_AXIS":"6925.333","PERIAPSIS":"546.345","RA_OF_ASC_NODE":"239.5661","EPOCH":"2021-09-29T08:33:01.434240","SITE":"AFETR","APOAPSIS":"548.051","CENTER_NAME":"EARTH","TLE_LINE2":"2 46571  53.0534 239.5661 0001232  62.5428 297.5687 15.06405041 55260"},{"TLE_LINE2":"2 46572  53.0542 259.4061 0001188  77.1227 282.9895 15.06397984 54987","EPOCH":"2021-09-29T09:23:27.571776","SITE":"AFETR","APOAPSIS":"548.042","CENTER_NAME":"EARTH","DECAY_DATE":null,"PERIAPSIS":"546.397","SEMIMAJOR_AXIS":"6925.355","RA_OF_ASC_NODE":"259.4061","MEAN_MOTION_DOT":"0.00000274","REF_FRAME":"TEME","FILE":"3134986","OBJECT_NAME":"STARLINK-1531","MEAN_ELEMENT_THEORY":"SGP4","TLE_LINE1":"1 46572U 20070AS  21272.39129134  .00000274  00000-0  37253-4 0  9996","EPHEMERIS_TYPE":"0","MEAN_MOTION_DDOT":"0.0000000000000","ELEMENT_SET_NO":"999","BSTAR":"0.00003725300000","ARG_OF_PERICENTER":"77.1227","CLASSIFICATION_TYPE":"U","RCS_SIZE":"LARGE","COUNTRY_CODE":"US","OBJECT_ID":"2020-070AS","MEAN_ANOMALY":"282.9895","NORAD_CAT_ID":"46572","LAUNCH_DATE":"2020-10-06","PERIOD":"95.592","ECCENTRICITY":"0.00011880","INCLINATION":"53.0542","GP_ID":"185791280","REV_AT_EPOCH":"5498","TIME_SYSTEM":"UTC","OBJECT_TYPE":"PAYLOAD","MEAN_MOTION":"15.06397984"},{"MEAN_MOTION":"15.06395548","OBJECT_TYPE":"PAYLOAD","GP_ID":"185792030","TIME_SYSTEM":"UTC","REV_AT_EPOCH":"5518","INCLINATION":"53.0535","ECCENTRICITY":"0.00015200","MEAN_ANOMALY":"287.2354","NORAD_CAT_ID":"46573","OBJECT_ID":"2020-070AT","PERIOD":"95.592","LAUNCH_DATE":"2020-10-06","RCS_SIZE":"LARGE","COUNTRY_CODE":"US","ARG_OF_PERICENTER":"72.8801","CLASSIFICATION_TYPE":"U","EPHEMERIS_TYPE":"0","BSTAR":"0.00010518000000","MEAN_MOTION_DDOT":"0.0000000000000","ELEMENT_SET_NO":"999","FILE":"3134986","OBJECT_NAME":"STARLINK-1650","MEAN_ELEMENT_THEORY":"SGP4","TLE_LINE1":"1 46573U 20070AT  21272.30236594  .00001285  00000-0  10518-3 0  9994","REF_FRAME":"TEME","MEAN_MOTION_DOT":"0.00001285","SEMIMAJOR_AXIS":"6925.362","DECAY_DATE":null,"PERIAPSIS":"546.175","RA_OF_ASC_NODE":"244.7975","APOAPSIS":"548.280","EPOCH":"2021-09-29T07:15:24.417216","SITE":"AFETR","CENTER_NAME":"EARTH","TLE_LINE2":"2 46573  53.0535 244.7975 0001520  72.8801 287.2354 15.06395548 55186"},{"CLASSIFICATION_TYPE":"U","ARG_OF_PERICENTER":"74.3954","BSTAR":"0.00002767300000","MEAN_MOTION_DDOT":"0.0000000000000","ELEMENT_SET_NO":"999","EPHEMERIS_TYPE":"0","PERIOD":"95.593","LAUNCH_DATE":"2020-10-06","MEAN_ANOMALY":"285.7205","NORAD_CAT_ID":"46574","OBJECT_ID":"2020-070AU","COUNTRY_CODE":"US","RCS_SIZE":"LARGE","INCLINATION":"53.0536","ECCENTRICITY":"0.00015450","MEAN_MOTION":"15.06392231","OBJECT_TYPE":"PAYLOAD","TIME_SYSTEM":"UTC","REV_AT_EPOCH":"5519","GP_ID":"185792282","CENTER_NAME":"EARTH","APOAPSIS":"548.307","EPOCH":"2021-09-29T08:29:43.408896","SITE":"AFETR","TLE_LINE2":"2 46574  53.0536 244.5763 0001545  74.3954 285.7205 15.06392231 55199","RA_OF_ASC_NODE":"244.5763","DECAY_DATE":null,"PERIAPSIS":"546.167","SEMIMAJOR_AXIS":"6925.372","MEAN_MOTION_DOT":"0.00000131","TLE_LINE1":"1 46574U 20070AU  21272.35397464  .00000131  00000-0  27673-4 0  9994","FILE":"3134986","MEAN_ELEMENT_THEORY":"SGP4","OBJECT_NAME":"STARLINK-1660","REF_FRAME":"TEME"},{"RA_OF_ASC_NODE":"219.9073","DECAY_DATE":null,"PERIAPSIS":"546.147","SEMIMAJOR_AXIS":"6925.371","CENTER_NAME":"EARTH","APOAPSIS":"548.325","EPOCH":"2021-09-29T06:42:52.077888","SITE":"AFETR","TLE_LINE2":"2 46575  53.0536 219.9073 0001572  68.8366 291.2791 15.06392697 55520","TLE_LINE1":"1 46575U 20070AV  21272.27976942 -.00000115  00000-0  11177-4 0  9995","MEAN_ELEMENT_THEORY":"SGP4","FILE":"3134986","OBJECT_NAME":"STARLINK-1675","REF_FRAME":"TEME","MEAN_MOTION_DOT":"-0.00000115","PERIOD":"95.593","LAUNCH_DATE":"2020-10-06","MEAN_ANOMALY":"291.2791","NORAD_CAT_ID":"46575","OBJECT_ID":"2020-070AV","COUNTRY_CODE":"US","RCS_SIZE":"LARGE","CLASSIFICATION_TYPE":"U","ARG_OF_PERICENTER":"68.8366","BSTAR":"0.00001117700000","ELEMENT_SET_NO":"999","MEAN_MOTION_DDOT":"0.0000000000000","EPHEMERIS_TYPE":"0","MEAN_MOTION":"15.06392697","OBJECT_TYPE":"PAYLOAD","REV_AT_EPOCH":"5552","TIME_SYSTEM":"UTC","GP_ID":"185793032","INCLINATION":"53.0536","ECCENTRICITY":"0.00015720"}];
